NORAD_CAT_ID,OBJECT_NAME,OBJECT_TYPE,EPOCH,MEAN_MOTION,ECCENTRICITY,INCLINATION,RA_OF_ASC_NODE,ARG_OF_PERICENTER,MEAN_ANOMALY,BSTAR,MEAN_MOTION_DOT,MEAN_MOTION_DDOT,TLE_LINE0,TLE_LINE1,TLE_LINE2,SEMIMAJOR_AXIS,PERIOD,APOGEE,PERIGEE,DECAYED
53844.0,STARLINK-4745,PAYLOAD,2022-10-24 14:00:01,15.73085959,0.0001527,53.2149,82.8945,44.7924,83.8437,0.00027404,0.00037826,0.0,0 STARLINK-4745,1 53844U 22114AC  22297.58334491  .00037826  00000-0  27404-3 0  9999,2 53844  53.2149  82.8945 0001527  44.7924  83.8437 15.73085959  1300,6728.22,91.54,351.11300000000006,349.05800000000005,0.0
53844.0,STARLINK-4745,PAYLOAD,2022-10-24 22:00:00,15.73115822,0.0001693,53.2149,81.2462,39.0553,178.3751,0.0011519,0.00163638,0.0,0 STARLINK-4745,1 53844U 22114AC  22297.91667824  .00163638  00000-0  11519-2 0  9995,2 53844  53.2149  81.2462 0001693  39.0553 178.3751 15.73115822  1308,6728.135,91.538,351.139,348.861,0.0
53844.0,STARLINK-4745,PAYLOAD,2022-10-25 00:00:00,15.73197003,0.0001695,53.215,80.8333,38.6217,291.005,0.00022727,0.00031391,0.0,0 STARLINK-4745,1 53844U 22114AC  22298.00001157  .00031391  00000-0  22727-3 0  9991,2 53844  53.2150  80.8333 0001695  38.6217 291.0050 15.73197003  6239,6727.904,91.533,350.909,348.62800000000016,0.0
53844.0,STARLINK-4745,PAYLOAD,2022-10-25 14:00:01,15.73238872,0.0001641,53.2152,77.9464,35.676,359.5813,-0.00034994,-0.00049527,0.0,0 STARLINK-4745,1 53844U 22114AC  22298.58334491 -.00049527  00000-0 -34994-3 0  9995,2 53844  53.2152  77.9464 0001641  35.6760 359.5813 15.73238872  1304,6727.784000000002,91.531,350.75300000000016,348.545,0.0
53844.0,STARLINK-4745,PAYLOAD,2022-10-25 22:00:01,15.73178121,0.0001716,53.2147,76.2975,29.5228,94.76,0.0004282,0.00059849,0.0,0 STARLINK-4745,1 53844U 22114AC  22298.91668981  .00059849  00000-0  42820-3 0  9999,2 53844  53.2147  76.2975 0001716  29.5228  94.7600 15.73178121  1303,6727.958000000001,91.534,350.977,348.668,0.0
53844.0,STARLINK-4745,PAYLOAD,2022-10-26 06:00:00,15.73216481,0.000154,53.2149,74.646,34.9207,178.2356,6.8763e-05,9.047e-05,0.0,0 STARLINK-4745,1 53844U 22114AC  22299.25001157  .00009047  00000-0  68763-4 0  9993,2 53844  53.2149  74.6460 0001540  34.9207 178.2356 15.73216481  6435,6727.848000000001,91.532,350.749,348.677,0.0
53844.0,STARLINK-4745,PAYLOAD,2022-10-26 14:00:01,15.73212396,0.0001776999999999,53.2153,72.9979,35.7085,266.3841,0.00018678,0.00025687,0.0,0 STARLINK-4745,1 53844U 22114AC  22299.58334491  .00025687  00000-0  18678-3 0  9996,2 53844  53.2153  72.9979 0001777  35.7085 266.3841 15.73212396  1301,6727.86,91.532,350.92,348.529,0.0
53844.0,STARLINK-4745,PAYLOAD,2022-10-26 22:00:00,15.73248055,0.0001889,53.2154,71.3489,28.5038,2.5393,-0.00032975,-0.00046741,0.0,0 STARLINK-4745,1 53844U 22114AC  22299.91667824 -.00046741  00000-0 -32975-3 0  9994,2 53844  53.2154  71.3489 0001889  28.5038   2.5393 15.73248055  1306,6727.7580000000025,91.53,350.894,348.352,0.0
53844.0,STARLINK-4745,PAYLOAD,2022-10-27 08:00:01,15.73187344,0.0001779,53.2158,69.285,34.6147,197.6502,0.00049017,0.00068701,0.0,0 STARLINK-4745,1 53844U 22114AC  22300.33334491  .00068701  00000-0  49017-3 0  9997,2 53844  53.2158  69.2850 0001779  34.6147 197.6502 15.73187344  6604,6727.931,91.534,350.99300000000005,348.599,0.0
53844.0,STARLINK-4745,PAYLOAD,2022-10-27 14:00:01,15.7323244,0.0001978,53.2157,68.0495,30.4695,178.5576,-0.00042622,-0.000601,0.0,0 STARLINK-4745,1 53844U 22114AC  22300.58335648 -.00060100  00000-0 -42622-3 0  9991,2 53844  53.2157  68.0495 0001978  30.4695 178.5576 15.73232440  6649,6727.803000000001,91.531,350.99800000000016,348.337,0.0
53844.0,STARLINK-4745,PAYLOAD,2022-10-27 22:00:00,15.73209015,0.000205,53.2151,66.4003,25.3097,272.5951,0.00047326,0.00066354,0.0,0 STARLINK-4745,1 53844U 22114AC  22300.91667824  .00066354  00000-0  47326-3 0  9993,2 53844  53.2151  66.4003 0002050  25.3097 272.5951 15.73209015  1303,6727.869000000002,91.533,351.11400000000015,348.355,0.0
53844.0,STARLINK-4745,PAYLOAD,2022-10-28 00:00:02,15.73239018,0.0002009999999999,53.2152,65.9874,27.1006,23.1013,0.00016154,0.00022149,0.0,0 STARLINK-4745,1 53844U 22114AC  22301.00002315  .00022149  00000-0  16154-3 0  9991,2 53844  53.2152  65.9874 0002010  27.1006  23.1013 15.73239018  6704,6727.784000000002,91.531,351.001,348.297,0.0
53844.0,STARLINK-4745,PAYLOAD,2022-10-28 14:00:01,15.73217482,0.0002024,53.2155,63.1011,27.0814,88.8527,-4.1196e-05,-6.403e-05,0.0,0 STARLINK-4745,1 53844U 22114AC  22301.58335648 -.00006403  00000-0 -41196-4 0  9994,2 53844  53.2155  63.1011 0002024  27.0814  88.8527 15.73217482  1301,6727.845,91.532,351.07199999999995,348.349,0.0
53844.0,STARLINK-4745,PAYLOAD,2022-10-28 22:00:01,15.73252945,0.0002123,53.2156,61.4518,21.9678,182.904,-0.00068896,-0.0009644,0.0,0 STARLINK-4745,1 53844U 22114AC  22301.91668981 -.00096440  00000-0 -68896-3 0  9995,2 53844  53.2156  61.4518 0002123  21.9678 182.9040 15.73252945  6850,6727.744000000002,91.53,351.038,348.181,0.0
53844.0,STARLINK-4745,PAYLOAD,2022-10-29 08:00:01,15.73199281,0.0002186,53.2161,59.3883,31.4166,14.574000000000002,-8.933899999999999e-05,-0.00013141,0.0,0 STARLINK-4745,1 53844U 22114AC  22302.33334491 -.00013141  00000-0 -89339-4 0  9991,2 53844  53.2161  59.3883 0002186  31.4166  14.5740 15.73199281  6911,6727.897,91.533,351.233,348.292,0.0
53844.0,STARLINK-4745,PAYLOAD,2022-10-29 12:00:00,15.73195965,0.0002371,53.2158,58.5647,31.7436,238.7262,0.00013139,0.00017856,0.0,0 STARLINK-4745,1 53844U 22114AC  22302.50001157  .00017856  00000-0  13139-3 0  9999,2 53844  53.2158  58.5647 0002371  31.7436 238.7262 15.73195965  1307,6727.906999999997,91.533,351.367,348.176,0.0
53844.0,STARLINK-4745,PAYLOAD,2022-10-29 22:00:01,15.73283968,0.0002456,53.2151,56.5031,27.8111,83.8784,-0.00044926,-0.00063436,0.0,0 STARLINK-4745,1 53844U 22114AC  22302.91668981 -.00063436  00000-0 -44926-3 0  9993,2 53844  53.2151  56.5031 0002456  27.8111  83.8784 15.73283968  1304,6727.656,91.528,351.173,347.86800000000005,0.0
53844.0,STARLINK-4745,PAYLOAD,2022-10-30 00:00:00,15.73303865,0.0002319999999999,53.2152,56.0902,27.3215,196.5484,-0.00090168,-0.00125869,0.0,0 STARLINK-4745,1 53844U 22114AC  22303.00001157 -.00125869  00000-0 -90168-3 0  9998,2 53844  53.2152  56.0902 0002320  27.3215 196.5484 15.73303865  7020,6727.599,91.527,351.025,347.903,0.0
53844.0,STARLINK-4745,PAYLOAD,2022-10-30 14:00:01,15.73165132,0.0002456,53.2153,53.2045,25.6563,263.8201,0.00046871,0.00065582,0.0,0 STARLINK-4745,1 53844U 22114AC  22303.58334491  .00065582  00000-0  46871-3 0  9996,2 53844  53.2153  53.2045 0002456  25.6563 263.8201 15.73165132  1308,6727.995,91.535,351.51199999999994,348.207,0.0
53844.0,STARLINK-4745,PAYLOAD,2022-10-30 22:00:01,15.73268291,0.0002421999999999,53.2154,51.5545,19.1602,359.2884,-0.00080766,-0.00112812,0.0,0 STARLINK-4745,1 53844U 22114AC  22303.91668981 -.00112812  00000-0 -80766-3 0  9999,2 53844  53.2154  51.5545 0002422  19.1602 359.2884 15.73268291  1307,6727.7,91.529,351.195,347.936,0.0
53844.0,STARLINK-4745,PAYLOAD,2022-10-31 14:00:01,15.73163135,0.0002552,53.2154,48.2557,13.5931,182.6559,0.00023797,0.00032858,0.0,0 STARLINK-4745,1 53844U 22114AC  22304.58334491  .00032858  00000-0  23797-3 0  9999,2 53844  53.2154  48.2557 0002552  13.5931 182.6559 15.73163135  1308,6728.0,91.535,351.582,348.148,0.0
53844.0,STARLINK-4745,PAYLOAD,2022-10-31 22:00:01,15.73207167,0.00026,53.2149,46.6055,16.2543,268.9571,-0.00039113,-0.00055183,0.0,0 STARLINK-4745,1 53844U 22114AC  22304.91668981 -.00055183  00000-0 -39113-3 0  9997,2 53844  53.2149  46.6055 0002600  16.2543 268.9571 15.73207167  7324,6727.875,91.533,351.48900000000015,347.99,0.0
53844.0,STARLINK-4745,PAYLOAD,2022-11-01 06:00:00,15.73181819,0.0002506999999999,53.2152,44.9547,23.679,350.3848,0.0001803,0.0002474,0.0,0 STARLINK-4745,1 53844U 22114AC  22305.25001157  .00024740  00000-0  18030-3 0  9999,2 53844  53.2152  44.9547 0002507  23.6790 350.3848 15.73181819  7370,6727.946999999999,91.534,351.499,348.125,0.0
53844.0,STARLINK-4745,PAYLOAD,2022-11-01 14:00:01,15.73184034,0.0002796,53.2152,43.3072,23.2686,79.709,0.00047218,0.00066133,0.0,0 STARLINK-4745,1 53844U 22114AC  22305.58334491  .00066133  00000-0  47218-3 0  9997,2 53844  53.2152  43.3072 0002796  23.2686  79.7090 15.73184034  1306,6727.941,91.534,351.68699999999984,347.925,0.0
53844.0,STARLINK-4745,PAYLOAD,2022-11-01 22:00:00,15.73275302,0.0002738,53.2154,41.6568,18.6359,173.273,-0.00099889,-0.00139,0.0,0 STARLINK-4745,1 53844U 22114AC  22305.91667824 -.00139000  00000-0 -99889-3 0  9990,2 53844  53.2154  41.6568 0002738  18.6359 173.2730 15.73275302  1300,6727.68,91.529,351.38800000000015,347.70300000000015,0.0
53844.0,STARLINK-4745,PAYLOAD,2022-11-02 06:00:00,15.73172651,0.0002663,53.2158,40.0058,19.4153,261.4566,-5.699e-05,-8.604e-05,0.0,0 STARLINK-4745,1 53844U 22114AC  22306.25001157 -.00008604  00000-0 -56990-4 0  9991,2 53844  53.2158  40.0058 0002663  19.4153 261.4566 15.73172651  7530,6727.973000000001,91.535,351.63,348.046,0.0
53844.0,STARLINK-4745,PAYLOAD,2022-11-02 14:00:01,15.73149778,0.000304,53.2162,38.3594,21.3336,348.4302,0.00056665,0.00079502,0.0,0 STARLINK-4745,1 53844U 22114AC  22306.58334491  .00079502  00000-0  56665-3 0  9998,2 53844  53.2162  38.3594 0003040  21.3336 348.4302 15.73149778  1302,6728.038000000001,91.536,351.949,347.858,0.0
53844.0,STARLINK-4745,PAYLOAD,2022-11-02 22:00:00,15.7329843,0.0002973999999999,53.2155,36.7078,20.0779,78.6371,-0.0007171,-0.00100519,0.0,0 STARLINK-4745,1 53844U 22114AC  22306.91667824 -.00100519  00000-0 -71710-3 0  9997,2 53844  53.2155  36.7078 0002974  20.0779  78.6371 15.73298430  7646,6727.615,91.527,351.48,347.47900000000016,0.0
53844.0,STARLINK-4745,PAYLOAD,2022-11-03 14:00:01,15.73183795,0.0003128,53.2157,33.4096,18.9243,257.7471,0.00044501,0.00062265,0.0,0 STARLINK-4745,1 53844U 22114AC  22307.58334491  .00062265  00000-0  44501-3 0  9993,2 53844  53.2157  33.4096 0003128  18.9243 257.7471 15.73183795  7745,6727.941,91.534,351.911,347.702,0.0
